{
  "type": "FeatureCollection",
  "features": [
    {
      "type": "Feature",
      "properties": {
        "norad_id": 66639,
        "name": "STARLINK-35908",
        "group": "last-30-days",
        "lat": -3.249146213181189,
        "lon": -18.530749419580673,
        "alt_km": 420.0062083683597,
        "timestamp": "2025-12-18T14:52:06.781056+00:00",
        "meta_object_name": "STARLINK-35908",
        "meta_object_id": "2025-271Y",
        "meta_epoch": "2025-12-18T06:20:13.839648",
        "meta_mean_motion": 15.49333945,
        "meta_eccentricity": 7.991e-05,
        "meta_inclination": 53.1597,
        "meta_ra_of_asc_node": 160.7302,
        "meta_arg_of_pericenter": 80.4676,
        "meta_mean_anomaly": 279.6424,
        "meta_ephemeris_type": 0,
        "meta_classification_type": "U",
        "meta_norad_cat_id": 66639,
        "meta_element_set_no": 999,
        "meta_rev_at_epoch": 506,
        "meta_bstar": 0.00088418883,
        "meta_mean_motion_dot": 0.00049079,
        "meta_mean_motion_ddot": 0,
        "tle_line1": "1 66639U 25271Y   25352.26404907  .00049079  00000+0  88419-3 0  9997",
        "tle_line2": "2 66639  53.1597 160.7302 0000799  80.4676 279.6424 15.49333945  5068"
      },
      "geometry": {
        "type": "Point",
        "coordinates": [
          -18.530749419580673,
          -3.249146213181189
        ]
      }
    },
    {
      "type": "Feature",
      "properties": {
        "norad_id": 66640,
        "name": "STARLINK-35921",
        "group": "last-30-days",
        "lat": -5.239877674246418,
        "lon": -17.03495119871208,
        "alt_km": 420.1517743768745,
        "timestamp": "2025-12-18T14:52:06.781068+00:00",
        "meta_object_name": "STARLINK-35921",
        "meta_object_id": "2025-271Z",
        "meta_epoch": "2025-12-17T02:27:41.322240",
        "meta_mean_motion": 15.49331878,
        "meta_eccentricity": 0.0001586,
        "meta_inclination": 53.1597,
        "meta_ra_of_asc_node": 166.2791,
        "meta_arg_of_pericenter": 66.7649,
        "meta_mean_anomaly": 293.3527,
        "meta_ephemeris_type": 0,
        "meta_classification_type": "U",
        "meta_norad_cat_id": 66640,
        "meta_element_set_no": 999,
        "meta_rev_at_epoch": 488,
        "meta_bstar": 0.001103034,
        "meta_mean_motion_dot": 0.00061432,
        "meta_mean_motion_ddot": 0,
        "tle_line1": "1 66640U 25271Z   25351.10256160  .00061432  00000+0  11030-2 0  9998",
        "tle_line2": "2 66640  53.1597 166.2791 0001586  66.7649 293.3527 15.49331878  4884"
      },
      "geometry": {
        "type": "Point",
        "coordinates": [
          -17.03495119871208,
          -5.239877674246418
        ]
      }
    },
    {
      "type": "Feature",
      "properties": {
        "norad_id": 66641,
        "name": "STARLINK-35923",
        "group": "last-30-days",
        "lat": -10.930831058734222,
        "lon": -12.666755656901483,
        "alt_km": 420.852906490064,
        "timestamp": "2025-12-18T14:52:06.781091+00:00",
        "meta_object_name": "STARLINK-35923",
        "meta_object_id": "2025-271AA",
        "meta_epoch": "2025-12-18T06:17:45.318048",
        "meta_mean_motion": 15.49366998,
        "meta_eccentricity": 0.00010112,
        "meta_inclination": 53.1596,
        "meta_ra_of_asc_node": 160.7165,
        "meta_arg_of_pericenter": 84.9337,
        "meta_mean_anomaly": 275.1788,
        "meta_ephemeris_type": 0,
        "meta_classification_type": "U",
        "meta_norad_cat_id": 66641,
        "meta_element_set_no": 999,
        "meta_rev_at_epoch": 506,
        "meta_bstar": 0.0011901761,
        "meta_mean_motion_dot": 0.00066445,
        "meta_mean_motion_ddot": 0,
        "tle_line1": "1 66641U 25271AA  25352.26233007  .00066445  00000+0  11902-2 0  9999",
        "tle_line2": "2 66641  53.1596 160.7165 0001011  84.9337 275.1788 15.49366998  5066"
      },
      "geometry": {
        "type": "Point",
        "coordinates": [
          -12.666755656901483,
          -10.930831058734222
        ]
      }
    },
    {
      "type": "Feature",
      "properties": {
        "norad_id": 66642,
        "name": "STARLINK-35926",
        "group": "last-30-days",
        "lat": -9.381139262141785,
        "lon": -13.871463396591603,
        "alt_km": 420.63896683947496,
        "timestamp": "2025-12-18T14:52:06.781105+00:00",
        "meta_object_name": "STARLINK-35926",
        "meta_object_id": "2025-271AB",
        "meta_epoch": "2025-12-18T06:18:15.191712",
        "meta_mean_motion": 15.49345756,
        "meta_eccentricity": 7.008e-05,
        "meta_inclination": 53.1591,
        "meta_ra_of_asc_node": 160.7202,
        "meta_arg_of_pericenter": 83.0215,
        "meta_mean_anomaly": 277.0874,
        "meta_ephemeris_type": 0,
        "meta_classification_type": "U",
        "meta_norad_cat_id": 66642,
        "meta_element_set_no": 999,
        "meta_rev_at_epoch": 502,
        "meta_bstar": 0.0015416421,
        "meta_mean_motion_dot": 0.00086356,
        "meta_mean_motion_ddot": 0,
        "tle_line1": "1 66642U 25271AB  25352.26267583  .00086356  00000+0  15416-2 0  9993",
        "tle_line2": "2 66642  53.1591 160.7202 0000700  83.0215 277.0874 15.49345756  5025"
      },
      "geometry": {
        "type": "Point",
        "coordinates": [
          -13.871463396591603,
          -9.381139262141785
        ]
      }
    },
    {
      "type": "Feature",
      "properties": {
        "norad_id": 66643,
        "name": "STARLINK-35918",
        "group": "last-30-days",
        "lat": -6.269569161848444,
        "lon": -16.253301688168783,
        "alt_km": 420.2715987088659,
        "timestamp": "2025-12-18T14:52:06.781115+00:00",
        "meta_object_name": "STARLINK-35918",
        "meta_object_id": "2025-271AC",
        "meta_epoch": "2025-12-18T06:19:16.343904",
        "meta_mean_motion": 15.49357905,
        "meta_eccentricity": 0.00011964,
        "meta_inclination": 53.1597,
        "meta_ra_of_asc_node": 160.7256,
        "meta_arg_of_pericenter": 80.8133,
        "meta_mean_anomaly": 279.3012,
        "meta_ephemeris_type": 0,
        "meta_classification_type": "U",
        "meta_norad_cat_id": 66643,
        "meta_element_set_no": 999,
        "meta_rev_at_epoch": 506,
        "meta_bstar": 0.0020423406,
        "meta_mean_motion_dot": 0.00115023,
        "meta_mean_motion_ddot": 0,
        "tle_line1": "1 66643U 25271AC  25352.26338361  .00115023  00000+0  20423-2 0  9995",
        "tle_line2": "2 66643  53.1597 160.7256 0001196  80.8133 279.3012 15.49357905  5067"
      },
      "geometry": {
        "type": "Point",
        "coordinates": [
          -16.253301688168783,
          -6.269569161848444
        ]
      }
    },
    {
      "type": "Feature",
      "properties": {
        "norad_id": 66644,
        "name": "STARLINK-35938",
        "group": "last-30-days",
        "lat": -7.873103287597755,
        "lon": -15.03124854050523,
        "alt_km": 420.4535542945341,
        "timestamp": "2025-12-18T14:52:06.781125+00:00",
        "meta_object_name": "STARLINK-35938",
        "meta_object_id": "2025-271AD",
        "meta_epoch": "2025-12-18T06:18:44.742240",
        "meta_mean_motion": 15.49353977,
        "meta_eccentricity": 5.84e-05,
        "meta_inclination": 53.1595,
        "meta_ra_of_asc_node": 160.7232,
        "meta_arg_of_pericenter": 73.1815,
        "meta_mean_anomaly": 286.9258,
        "meta_ephemeris_type": 0,
        "meta_classification_type": "U",
        "meta_norad_cat_id": 66644,
        "meta_element_set_no": 999,
        "meta_rev_at_epoch": 506,
        "meta_bstar": 0.0016953254,
        "meta_mean_motion_dot": 0.00095145,
        "meta_mean_motion_ddot": 0,
        "tle_line1": "1 66644U 25271AD  25352.26301785  .00095145  00000+0  16953-2 0  9991",
        "tle_line2": "2 66644  53.1595 160.7232 0000584  73.1815 286.9258 15.49353977  5063"
      },
      "geometry": {
        "type": "Point",
        "coordinates": [
          -15.03124854050523,
          -7.873103287597755
        ]
      }
    },
    {
      "type": "Feature",
      "properties": {
        "norad_id": 66645,
        "name": "SHENZHOU-22",
        "group": "last-30-days",
        "lat": 38.516190990260434,
        "lon": 45.327990593051474,
        "alt_km": 377.8619878628697,
        "timestamp": "2025-12-18T14:52:06.781136+00:00",
        "meta_object_name": "SHENZHOU-22",
        "meta_object_id": "2025-272A",
        "meta_epoch": "2025-12-18T06:53:03.575616",
        "meta_mean_motion": 15.59417882,
        "meta_eccentricity": 0.00077258,
        "meta_inclination": 41.4683,
        "meta_ra_of_asc_node": 343.0261,
        "meta_arg_of_pericenter": 79.3286,
        "meta_mean_anomaly": 280.8422,
        "meta_ephemeris_type": 0,
        "meta_classification_type": "U",
        "meta_norad_cat_id": 66645,
        "meta_element_set_no": 999,
        "meta_rev_at_epoch": 26357,
        "meta_bstar": 0.00029030456,
        "meta_mean_motion_dot": 0.00023377,
        "meta_mean_motion_ddot": 0,
        "tle_line1": "1 66645U 25272A   25352.28684694  .00023377  00000+0  29030-3 0  9997",
        "tle_line2": "2 66645  41.4683 343.0261 0007725  79.3286 280.8422 15.59417882263579"
      },
      "geometry": {
        "type": "Point",
        "coordinates": [
          45.327990593051474,
          38.516190990260434
        ]
      }
    }
  ]
}